ASTROCAST-0404          
1 55112U 23001DH  26068.80836714  .00008870  00000+0  34436-3 0  9994
2 55112  97.5646 161.5422 0006847   1.1317 358.9936 15.26309833129366
STARLINK-31231          
1 59034U 24038M   26068.26950667 -.00000305  00000+0 -15589-5 0  9993
2 59034  43.0047  25.9678 0001200 275.6267  84.4448 15.27574784114622
